{
    "links": {
        "self": "http://www.neowsapp.com/rest/v1/neo/3392367?api_key=iIulBulltgU6a56xZRHN4H3l9WmuAYTsLGpBGhQ2"
    },
    "id": "3392367",
    "neo_reference_id": "3392367",
    "name": "(2007 VV6)",
    "designation": "2007 VV6",
    "nasa_jpl_url": "http://ssd.jpl.nasa.gov/sbdb.cgi?sstr=3392367",
    "absolute_magnitude_h": 24.8,
    "estimated_diameter": {
        "kilometers": {
            "estimated_diameter_min": 0.0291443905,
            "estimated_diameter_max": 0.0651688382
        },
        "meters": {
            "estimated_diameter_min": 29.1443904535,
            "estimated_diameter_max": 65.1688382168
        },
        "miles": {
            "estimated_diameter_min": 0.018109479,
            "estimated_diameter_max": 0.0404940262
        },
        "feet": {
            "estimated_diameter_min": 95.6180819754,
            "estimated_diameter_max": 213.8085311752
        }
    },
    "is_potentially_hazardous_asteroid": false,
    "close_approach_data": [
        {
            "close_approach_date": "1960-08-25",
            "close_approach_date_full": "1960-Aug-25 11:30",
            "epoch_date_close_approach": -295101000000,
            "relative_velocity": {
                "kilometers_per_second": "13.9958206824",
                "kilometers_per_hour": "50384.9544565036",
                "miles_per_hour": "31307.2512843758"
            },
            "miss_distance": {
                "astronomical": "0.3544392521",
                "lunar": "137.8768690669",
                "kilometers": "53023357.158553027",
                "miles": "32947186.3569926926"
            },
            "orbiting_body": "Earth"
        },
        {
            "close_approach_date": "1997-08-18",
            "close_approach_date_full": "1997-Aug-18 17:49",
            "epoch_date_close_approach": 871926540000,
            "relative_velocity": {
                "kilometers_per_second": "17.6161435056",
                "kilometers_per_hour": "63418.1166203015",
                "miles_per_hour": "39405.5514077646"
            },
            "miss_distance": {
                "astronomical": "0.4754870332",
                "lunar": "184.9644559148",
                "kilometers": "71131847.379339284",
                "miles": "44199280.4136547592"
            },
            "orbiting_body": "Earth"
        },
        {
            "close_approach_date": "2002-09-06",
            "close_approach_date_full": "2002-Sep-06 07:54",
            "epoch_date_close_approach": 1031298840000,
            "relative_velocity": {
                "kilometers_per_second": "9.4589498164",
                "kilometers_per_hour": "34052.2193391453",
                "miles_per_hour": "21158.7248443706"
            },
            "miss_distance": {
                "astronomical": "0.2074958482",
                "lunar": "80.7158849498",
                "kilometers": "31040936.924563334",
                "miles": "19287943.8110846492"
            },
            "orbiting_body": "Earth"
        },
        {
            "close_approach_date": "2007-11-02",
            "close_approach_date_full": "2007-Nov-02 01:53",
            "epoch_date_close_approach": 1193968380000,
            "relative_velocity": {
                "kilometers_per_second": "4.4943254416",
                "kilometers_per_hour": "16179.5715897946",
                "miles_per_hour": "10053.3565803366"
            },
            "miss_distance": {
                "astronomical": "0.039667019",
                "lunar": "15.430470391",
                "kilometers": "5934101.55164953",
                "miles": "3687279.722762314"
            },
            "orbiting_body": "Earth"
        },
        {
            "close_approach_date": "2012-11-30",
            "close_approach_date_full": "2012-Nov-30 14:09",
            "epoch_date_close_approach": 1354284540000,
            "relative_velocity": {
                "kilometers_per_second": "14.0187297311",
                "kilometers_per_hour": "50467.4270321159",
                "miles_per_hour": "31358.4965355944"
            },
            "miss_distance": {
                "astronomical": "0.3426340866",
                "lunar": "133.2846596874",
                "kilometers": "51257329.544755542",
                "miles": "31849827.6829767996"
            },
            "orbiting_body": "Earth"
        }
    ],
    "orbital_data": {
        "orbit_id": "15",
        "orbit_determination_date": "2017-04-06 09:05:23",
        "first_observation_date": "2007-11-03",
        "last_observation_date": "2007-11-27",
        "data_arc_in_days": 24,
        "observations_used": 80,
        "orbit_uncertainty": "7",
        "minimum_orbit_intersection": ".0375046",
        "jupiter_tisserand_invariant": "4.675",
        "epoch_osculation": "2459000.5",
        "eccentricity": ".2802326541877932",
        "semi_major_axis": "1.415695538777334",
        "inclination": "3.807209695813278",
        "ascending_node_longitude": "235.7322652340569",
        "orbital_period": "615.2522662877384",
        "perihelion_distance": "1.018971420423944",
        "perihelion_argument": "149.9107437131971",
        "aphelion_distance": "1.812419657130724",
        "perihelion_time": "2458701.060834511966",
        "mean_anomaly": "175.2095936616636",
        "mean_motion": ".5851258414245919",
        "equinox": "J2000",
        "orbit_class": {
            "orbit_class_type": "AMO",
            "orbit_class_description": "Near-Earth asteroid orbits similar to that of 1221 Amor",
            "orbit_class_range": "1.017 AU < q (perihelion) < 1.3 AU"
        }
    },
    "is_sentry_object": false
}